0 SL-8 R/B
1 20104U 89050B   13282.11994351 -.00000032  00000-0 -46975-4 0  6829
2 20104 082.9530 091.7297 0043214 000.2703 136.3987 13.77122574219207
0 SL-8 R/B
1 20104U 89050B   13287.11564657 -.00000032  00000-0 -47257-4 0  6842
2 20104 082.9536 088.0208 0042920 346.0528 063.5276 13.77122534219896
0 SL-8 R/B
1 20104U 89050B   13289.50946944 -.00000012  00000-0 -27047-4 0  6854
2 20104 082.9539 086.2437 0042812 339.1663 051.4252 13.77122189220221
0 SL-8 R/B
1 20104U 89050B   13292.50412814  .00000006  00000-0 -85847-5 0  6868
2 20104 082.9544 084.0206 0042655 330.6100 138.0352 13.77121984220634
0 SL-8 R/B
1 20104U 89050B   13294.82889419  .00000017  00000-0  18781-5 0  6879
2 20104 082.9548 082.2950 0042564 323.9320 143.5539 13.77122145220955
